METOP-C                 
1 43689U 18087A   21295.73900216  .00000018  00000-0  28265-4 0  9997
2 43689  98.7203 354.1169 0003113  28.0750 332.0595 14.21482894153537
CICERO 10               
1 43690U 18088A   21295.64548069  .00002132  00000-0  92271-4 0  9991
2 43690  85.0332 113.7230 0012564 308.8594  51.1525 15.21729021163567
NABEO-1 & KICK STAGE    
1 43692U 18088C   21295.75046657  .00003405  00000-0  14266-3 0  9992
2 43692  85.0288 112.4263 0013541 283.4823  76.4910 15.23060631163600
IRVINE01                
1 43693U 18088D   21295.75053410  .00006866  00000-0  25681-3 0  9995
2 43693  85.0296 110.2685 0013683 274.9454  85.0229 15.27038065163852
PROXIMA I               
1 43694U 18088E   21295.53762335  .00002110  00000-0  86643-4 0  9999
2 43694  85.0273 111.0838 0016126 272.5204  87.4193 15.23449420163728
LEMUR-2-ZUPANSKI        
1 43695U 18088F   21295.73011502  .00003305  00000-0  13629-3 0  9995
2 43695  85.0268 111.7313 0014171 298.4791  61.5023 15.23573347163668
PROXIMA II              
1 43696U 18088G   21295.73322706  .00002120  00000-0  87054-4 0  9995
2 43696  85.0276 110.9655 0016176 271.6550  88.2840 15.23445634163740
LEMUR-2-CHANUSIAK       
1 43697U 18088H   21295.63360963  .00002737  00000-0  10980-3 0  9999
2 43697  85.0330 111.8267 0012623 274.8328  85.1474 15.24429319163744
GSAT-29                 
1 43698U 18089A   21295.68507243  .00000088  00000-0  00000-0 0  9996
2 43698   0.1044  91.6735 0002872 133.8490 107.5438  1.00272818 10759
ES'HAIL 2               
1 43700U 18090A   21295.64546455  .00000148  00000-0  00000-0 0  9993
2 43700   0.0154 249.5183 0002426 345.9547  54.0036  1.00270491 10642
BEIDOU-3 M17            
1 43706U 18093A   21295.39257284 -.00000009  00000-0  00000-0 0  9990
2 43706  54.4368 240.1105 0010567 276.9627  82.8984  1.86232029 19904
BEIDOU-3 M18            
1 43707U 18093B   21295.53578957 -.00000008  00000-0  00000-0 0  9999
2 43707  54.4381 240.0957 0009748 296.9216 249.9399  1.86232117 19891
TIANZHI 1               
1 43710U 18094A   21295.94817008  .00000977  00000-0  42826-4 0  9992
2 43710  97.4041 303.2777 0015528 109.7875 336.6164 15.24273919162628
SHIYAN 6 01 (SY-6 01)   
1 43711U 18094B   21295.72387134  .00000901  00000-0  43937-4 0  9992
2 43711  97.4160 298.4894 0013843 122.2969 237.9609 15.20780963162252
TIANPING 1A             
1 43712U 18094C   21295.95248838  .00002227  00000-0  91239-4 0  9996
2 43712  97.4028 303.7121 0014694 105.3597 342.0049 15.25252783162652
JIADING 1               
1 43713U 18094D   21295.91363485  .00001890  00000-0  78125-4 0  9993
2 43713  97.4028 303.6855 0015613 110.0073 341.6228 15.25118413162644
TIANPING 1B             
1 43714U 18094E   21295.97311201  .00001340  00000-0  57218-4 0  9999
2 43714  97.4036 303.4346 0014170 108.3338 335.7479 15.24558563162632
MOHAMMED VI-B           
1 43717U 18095A   21295.81894370  .00000137  00000-0  26628-4 0  9993
2 43717  97.9525   6.5540 0001357  82.0549 278.0804 14.77080373157478
HYSIS                   
1 43719U 18096A   21295.84765682  .00000248  00000-0  40963-4 0  9993
2 43719  97.9910 359.1235 0001017 203.8310 156.2840 14.78636876156447
HSAT                    
1 43720U 18096B   21295.73525374  .00009525  00000-0  28971-3 0  9996
2 43720  97.3828  14.5487 0014089 169.0649 191.0903 15.34144017161721
FACSAT-1                
1 43721U 18096C   21295.86235220  .00005478  00000-0  19153-3 0  9994
2 43721  97.3761  12.0342 0016369 174.6803 297.6629 15.29833295161598
CENTAURI-2              
1 43722U 18096D   21295.70949007  .00005853  00000-0  19584-3 0  9998
2 43722  97.3794  12.9670 0016196 172.8083 187.3393 15.31234382161628
FLOCK 3R-9              
1 43723U 18096E   21295.75711491  .00014967  00000-0  46463-3 0  9990
2 43723  97.3813  14.6681 0014491 170.8918 314.7875 15.33372488161738
FLOCK 3R-12             
1 43724U 18096F   21295.72727119  .00005970  00000-0  18727-3 0  9998
2 43724  97.3814  14.6915 0015509 169.6223 190.5343 15.33311109161739
FLOCK 3R-11             
1 43725U 18096G   21295.71276672  .00007266  00000-0  22738-3 0  9998
2 43725  97.3809  14.6783 0015502 168.8956 191.2631 15.33309007161736
FLOCK 3R-8              
1 43727U 18096J   21295.69143541  .00003754  00000-0  11873-3 0  9991
2 43727  97.3823  14.8630 0015666 171.0823 189.0701 15.33303730161737
KEPLER-1 (CASE)         
1 43729U 18096L   21295.73388713  .00006435  00000-0  20931-3 0  9994
2 43729  97.3816  14.0580 0016458 176.0094 184.1282 15.32104847161683
GLOBAL-1                
1 43730U 18096M   21295.71404987  .00002602  00000-0  94742-4 0  9990
2 43730  97.3800  12.5169 0018735 181.3460 178.7733 15.28969722161585
LEMUR-2-ORZULAK         
1 43731U 18096N   21295.74152924  .00007175  00000-0  22658-3 0  9991
2 43731  97.3843  15.0644 0018469 173.8397 186.3076 15.32973945161748
LEMUR-2-KOBYSZCZE       
1 43732U 18096P   21295.71085804  .00007309  00000-0  22973-3 0  9990
2 43732  97.3855  15.3370 0018370 173.8581 186.2890 15.33119767161756
FLOCK 3R-4              
1 43733U 18096Q   21295.47128738  .00011311  00000-0  35189-3 0  9999
2 43733  97.3814  14.7437 0018276 174.2588 248.7060 15.33310765161705
FLOCK 3R-3              
1 43734U 18096R   21295.89164372  .00011274  00000-0  35037-3 0  9990
2 43734  97.3828  15.2518 0017986 174.4922 246.6761 15.33350807161771
CICERO 8                
1 43737U 18096U   21295.71557565  .00006734  00000-0  21008-3 0  9992
2 43737  97.3797  15.4269 0019647 175.4351 184.7074 15.33367830161804
INNOSAT-2               
1 43738U 18096V   21295.91424053  .00010997  00000-0  32030-3 0  9993
2 43738  97.3860  17.7816 0020367 171.0664 313.3953 15.35363651161949
FLOCK 3R-6              
1 43741U 18096Y   21295.79301152  .00010334  00000-0  32199-3 0  9998
2 43741  97.3836  14.8693 0015767 169.1266 311.9099 15.33329605161754
FLOCK 3R-7              
1 43742U 18096Z   21295.85390595  .00014069  00000-0  43670-3 0  9990
2 43742  97.3808  14.9348 0016071 171.3387 325.7721 15.33366040161759
REAKTOR HELLO WORLD     
1 43743U 18096AA  21295.72882870  .00003329  00000-0  11848-3 0  9998
2 43743  97.3770  12.2590 0016902 179.8909 180.2338 15.29538205161582
HIBER-1                 
1 43744U 18096AB  21295.74589765  .00006049  00000-0  19922-3 0  9991
2 43744  97.3812  13.7277 0016258 177.0229 183.1112 15.31731504161668
LEMUR-2-DULY            
1 43745U 18096AC  21295.44407470  .00007025  00000-0  22144-3 0  9996
2 43745  97.3847  15.0051 0018387 173.7640 186.3835 15.33044161161729
LEMUR-2-VLADIMIR        
1 43746U 18096AD  21295.73900397  .00007642  00000-0  23724-3 0  9995
2 43746  97.3847  15.5088 0018200 173.3068 186.8421 15.33501361161804
FLOCK 3R-1              
1 43747U 18096AE  21295.74285522  .00003693  00000-0  11659-3 0  9999
2 43747  97.3830  15.1195 0018495 173.9983 186.1484 15.33329325161765
COSMOS 2530             
1 43751U 18097A   21295.79855631  .00000000  00000-0 -72942-4 0  9997
2 43751  82.5197 196.4567 0019427 138.9056 221.3497 12.42864606131391
COSMOS 2531             
1 43752U 18097B   21295.82811488 -.00000006  00000-0 -11260-3 0  9996
2 43752  82.5226 196.8722 0016237 156.0901 204.0939 12.42868463131404
COSMOS 2532             
1 43753U 18097C   21295.77711999 -.00000008  00000-0 -12825-3 0  9997
2 43753  82.5183 196.4652 0017848 158.4356 201.7479 12.42885123131397
MINXSS-2                
1 43758U 18099A   21295.70886918  .00000336  00000-0  34810-4 0  9992
2 43758  97.6551   4.1957 0015045 347.7012  12.3840 14.96248431157549
SIRION PATHFINDER-2     
1 43759U 18099B   21295.71387205  .00000251  00000-0  27693-4 0  9996
2 43759  97.6519   3.4278 0013663 343.1776  16.8990 14.95644296157502
ELYSIUM STAR 2 & LFF    
1 43760U 18099C   21295.70565537  .00000899  00000-0  83812-4 0  9996
2 43760  97.6592   4.4110 0013142 346.8677  13.2200 14.96648589157542
2018-099D               
1 43761U 18099D   21295.95636933  .00001020  00000-0  97356-4 0  9998
2 43761  97.6549   3.6988 0014474 350.6893   9.4059 14.95392259157527
STPSAT-5                
1 43762U 18099E   21295.74288746  .00000952  00000-0  88961-4 0  9996
2 43762  97.6555   4.8083 0013696 351.4723   8.6263 14.96391799157707
POLAR SCOUT KODIAK      
1 43764U 18099G   21295.70747079  .00000298  00000-0  30795-4 0  9998
2 43764  97.6571   5.5912 0015509 348.1555  11.9300 14.97143887157621
HAWK-A                  
1 43765U 18099H   21295.73342856  .00000680  00000-0  64954-4 0  9995
2 43765  97.6502   4.4581 0014481 354.5754   5.5308 14.96414466157581
SPAWAR-CAL-O            
1 43766U 18099J   21295.72595974  .00000955  00000-0  91724-4 0  9996
2 43766  97.6510   2.5128 0010805 350.9905   9.1120 14.95323859157453
CORVUS BC4              
1 43767U 18099K   21295.70775132  .00000175  00000-0  21101-4 0  9997
2 43767  97.6488   2.2553 0011313 350.1518   9.9479 14.95062092157447
AISTECHSAT 2            
1 43768U 18099L   21295.74435428  .00000783  00000-0  76613-4 0  9996
2 43768  97.6499   2.2552 0011002 352.0842   8.0203 14.95029386157168
FLOCK 3S-1              
1 43769U 18099M   21295.66721675  .00001106  00000-0  10493-3 0  9993
2 43769  97.6506   2.4463 0013674 356.6119   3.5007 14.95457935157465
FOX-1CLIFF (AO-95)      
1 43770U 18099N   21295.71924810  .00000623  00000-0  61311-4 0  9996
2 43770  97.6525   3.0226 0014170 357.8655   2.2503 14.95485649157473
2018-099P               
1 43771U 18099P   21295.69439491  .00000483  00000-0  48643-4 0  9997
2 43771  97.6537   3.0929 0014312 358.2996   1.8174 14.95567278157465
RANGE-A                 
1 43772U 18099Q   21295.45270074  .00000789  00000-0  75696-4 0  9999
2 43772  97.6619   3.9631 0013480 345.2724  14.8103 14.95835011157443
RANGE-B                 
1 43773U 18099R   21295.73554947  .00000896  00000-0  86249-4 0  9990
2 43773  97.6459   2.2291 0012865 345.7530  14.3327 14.95336498157466
